{
  "norad_id": 68885,
  "name": "KUIPER-00504",
  "history": [
    {
      "epoch": "2026-05-02T10:00:03.000096Z",
      "apogee_km": 467.82407865496225,
      "perigee_km": 450.995508486626,
      "latitude_deg": 43.18833423619235,
      "longitude_deg": -133.70094859126655,
      "height_km": 455.729741515942,
      "semi_major_axis_km": 6837.546793570794,
      "eccentricity": 0.0012306,
      "inclination_deg": 51.8696,
      "raan_deg": 103.7629,
      "arg_perigee_deg": 141.4989,
      "mean_anomaly_deg": 338.3505,
      "mean_motion_rev_day": 15.35508747
    }
  ]
}