KUIPER-00504            
1 68885U 26095X   26122.41670139  .00065401  00000+0  18573-2 0  9992
2 68885  51.8696 103.7629 0012306 141.4989 338.3505 15.35508747  1304
